OBJECT_NAME,OBJECT_ID,EPOCH,MEAN_MOTION,ECCENTRICITY,INCLINATION,RA_OF_ASC_NODE,ARG_OF_PERICENTER,MEAN_ANOMALY,EPHEMERIS_TYPE,CLASSIFICATION_TYPE,NORAD_CAT_ID,ELEMENT_SET_NO,REV_AT_EPOCH,BSTAR,MEAN_MOTION_DOT,MEAN_MOTION_DDOT
SPACEMOBILE-004,2024-163E,2026-07-02T13:02:58.190784,15.20809902,.0008066,52.9656,238.3078,185.4439,174.6468,0,U,61049,999,10010,.25207E-3,.5309E-4,0
CZ-8A R/B,2025-231K,2026-07-04T02:25:58.239264,14.30159709,.01164944,50.0053,327.3562,283.5563,75.2398,0,U,66004,999,3736,.57544165E-4,-.2E-7,0
SZ-21 MODULE,2025-246C,2026-07-04T02:57:17.274240,15.77879108,.00055149,41.4707,201.7323,137.2881,222.8393,0,U,66515,999,3641,.31913879E-3,.55651E-3,0
SPACEMOBILE-006,2025-309A,2026-07-04T05:17:25.302336,15.18633254,.0010752,52.9968,253.6112,179.3808,180.7201,0,U,67232,999,2918,.12925375E-3,.2391E-4,0
SPACEMOBILE-008,2026-139A,2026-07-04T01:17:27.716928,15.12789669,.00044831,52.9937,185.9907,29.1107,331.0134,0,U,69589,999,253,.33918065E-4,.301E-5,0
SPACEMOBILE-009,2026-139B,2026-07-04T01:19:09.348384,15.12682985,.0004696,52.9927,185.9939,23.9462,336.1747,0,U,69590,999,253,.34670917E-4,.313E-5,0
SPACEMOBILE-010,2026-139C,2026-07-03T23:46:41.708064,15.12514031,.00045532,52.9931,186.3077,14.6312,345.4810,0,U,69591,999,253,.36224861E-4,.338E-5,0
